{"type": "FeatureCollection", "features": [{"type": "Feature", "properties": {"building_id": "B-001", "parcel_id": "P-001"}, "geometry": {"type": "Polygon", "coordinates": [[[77.20035, 28.6103], [77.20135, 28.6103], [77.20135, 28.610999999999997], [77.20035, 28.610999999999997], [77.20035, 28.6103]]]}}, {"type": "Feature", "properties": {"building_id": "B-002", "parcel_id": "P-002"}, "geometry": {"type": "Polygon", "coordinates": [[[77.20285, 28.6103], [77.20385, 28.6103], [77.20385, 28.610999999999997], [77.20285, 28.610999999999997], [77.20285, 28.6103]]]}}, {"type": "Feature", "properties": {"building_id": "B-003", "parcel_id": "P-003"}, "geometry": {"type": "Polygon", "coordinates": [[[77.20535, 28.6103], [77.20635, 28.6103], [77.20635, 28.610999999999997], [77.20535, 28.610999999999997], [77.20535, 28.6103]]]}}, {"type": "Feature", "properties": {"building_id": "B-004", "parcel_id": "P-004"}, "geometry": {"type": "Polygon", "coordinates": [[[77.20785, 28.6103], [77.20885, 28.6103], [77.20885, 28.610999999999997], [77.20785, 28.610999999999997], [77.20785, 28.6103]]]}}, {"type": "Feature", "properties": {"building_id": "B-005", "parcel_id": "P-005"}, "geometry": {"type": "Polygon", "coordinates": [[[77.21043, 28.6103], [77.21143000000001, 28.6103], [77.21143000000001, 28.610999999999997], [77.21043, 28.610999999999997], [77.21043, 28.6103]]]}}, {"type": "Feature", "properties": {"building_id": "B-006", "parcel_id": "P-006"}, "geometry": {"type": "Polygon", "coordinates": [[[77.21285, 28.6103], [77.21385000000001, 28.6103], [77.21385000000001, 28.610999999999997], [77.21285, 28.610999999999997], [77.21285, 28.6103]]]}}, {"type": "Feature", "properties": {"building_id": "B-007", "parcel_id": "P-007"}, "geometry": {"type": "Polygon", "coordinates": [[[77.20035, 28.612299999999998], [77.20135, 28.612299999999998], [77.20135, 28.612999999999996], [77.20035, 28.612999999999996], [77.20035, 28.612299999999998]]]}}, {"type": "Feature", "properties": {"building_id": "B-008", "parcel_id": "P-008"}, "geometry": {"type": "Polygon", "coordinates": [[[77.20285, 28.612299999999998], [77.20385, 28.612299999999998], [77.20385, 28.612999999999996], [77.20285, 28.612999999999996], [77.20285, 28.612299999999998]]]}}, {"type": "Feature", "properties": {"building_id": "B-009", "parcel_id": "P-009"}, "geometry": {"type": "Polygon", "coordinates": [[[77.20535, 28.612299999999998], [77.20635, 28.612299999999998], [77.20635, 28.612999999999996], [77.20535, 28.612999999999996], [77.20535, 28.612299999999998]]]}}, {"type": "Feature", "properties": {"building_id": "B-010", "parcel_id": "P-010"}, "geometry": {"type": "Polygon", "coordinates": [[[77.20785, 28.612299999999998], [77.20885, 28.612299999999998], [77.20885, 28.612999999999996], [77.20785, 28.612999999999996], [77.20785, 28.612299999999998]]]}}, {"type": "Feature", "properties": {"building_id": "B-011", "parcel_id": "P-011"}, "geometry": {"type": "Polygon", "coordinates": [[[77.21035, 28.612299999999998], [77.21135000000001, 28.612299999999998], [77.21135000000001, 28.612999999999996], [77.21035, 28.612999999999996], [77.21035, 28.612299999999998]]]}}, {"type": "Feature", "properties": {"building_id": "B-012", "parcel_id": "P-012"}, "geometry": {"type": "Polygon", "coordinates": [[[77.21285, 28.612299999999998], [77.21385000000001, 28.612299999999998], [77.21385000000001, 28.612999999999996], [77.21285, 28.612999999999996], [77.21285, 28.612299999999998]]]}}, {"type": "Feature", "properties": {"building_id": "B-013", "parcel_id": "P-013"}, "geometry": {"type": "Polygon", "coordinates": [[[77.20043, 28.6143], [77.20143, 28.6143], [77.20143, 28.615], [77.20043, 28.615], [77.20043, 28.6143]]]}}, {"type": "Feature", "properties": {"building_id": "B-014", "parcel_id": "P-014"}, "geometry": {"type": "Polygon", "coordinates": [[[77.20285, 28.6143], [77.20385, 28.6143], [77.20385, 28.615], [77.20285, 28.615], [77.20285, 28.6143]]]}}, {"type": "Feature", "properties": {"building_id": "B-015", "parcel_id": "P-015"}, "geometry": {"type": "Polygon", "coordinates": [[[77.20535, 28.6143], [77.20635, 28.6143], [77.20635, 28.615], [77.20535, 28.615], [77.20535, 28.6143]]]}}, {"type": "Feature", "properties": {"building_id": "B-016", "parcel_id": "P-016"}, "geometry": {"type": "Polygon", "coordinates": [[[77.20785, 28.6143], [77.20885, 28.6143], [77.20885, 28.615], [77.20785, 28.615], [77.20785, 28.6143]]]}}, {"type": "Feature", "properties": {"building_id": "B-017", "parcel_id": "P-017"}, "geometry": {"type": "Polygon", "coordinates": [[[77.21035, 28.6143], [77.21135000000001, 28.6143], [77.21135000000001, 28.615], [77.21035, 28.615], [77.21035, 28.6143]]]}}, {"type": "Feature", "properties": {"building_id": "B-018", "parcel_id": "P-018"}, "geometry": {"type": "Polygon", "coordinates": [[[77.21285, 28.6143], [77.21385000000001, 28.6143], [77.21385000000001, 28.615], [77.21285, 28.615], [77.21285, 28.6143]]]}}, {"type": "Feature", "properties": {"building_id": "B-019", "parcel_id": "P-019"}, "geometry": {"type": "Polygon", "coordinates": [[[77.20035, 28.6163], [77.20135, 28.6163], [77.20135, 28.616999999999997], [77.20035, 28.616999999999997], [77.20035, 28.6163]]]}}, {"type": "Feature", "properties": {"building_id": "B-020", "parcel_id": "P-020"}, "geometry": {"type": "Polygon", "coordinates": [[[77.20293, 28.6163], [77.20393, 28.6163], [77.20393, 28.616999999999997], [77.20293, 28.616999999999997], [77.20293, 28.6163]]]}}, {"type": "Feature", "properties": {"building_id": "B-021", "parcel_id": "P-021"}, "geometry": {"type": "Polygon", "coordinates": [[[77.20535, 28.6163], [77.20635, 28.6163], [77.20635, 28.616999999999997], [77.20535, 28.616999999999997], [77.20535, 28.6163]]]}}, {"type": "Feature", "properties": {"building_id": "B-022", "parcel_id": "P-022"}, "geometry": {"type": "Polygon", "coordinates": [[[77.20785, 28.6163], [77.20885, 28.6163], [77.20885, 28.616999999999997], [77.20785, 28.616999999999997], [77.20785, 28.6163]]]}}, {"type": "Feature", "properties": {"building_id": "B-023", "parcel_id": "P-023"}, "geometry": {"type": "Polygon", "coordinates": [[[77.21035, 28.6163], [77.21135000000001, 28.6163], [77.21135000000001, 28.616999999999997], [77.21035, 28.616999999999997], [77.21035, 28.6163]]]}}, {"type": "Feature", "properties": {"building_id": "B-024", "parcel_id": "P-024"}, "geometry": {"type": "Polygon", "coordinates": [[[77.21285, 28.6163], [77.21385000000001, 28.6163], [77.21385000000001, 28.616999999999997], [77.21285, 28.616999999999997], [77.21285, 28.6163]]]}}, {"type": "Feature", "properties": {"building_id": "B-025", "parcel_id": "P-025"}, "geometry": {"type": "Polygon", "coordinates": [[[77.20035, 28.618299999999998], [77.20135, 28.618299999999998], [77.20135, 28.618999999999996], [77.20035, 28.618999999999996], [77.20035, 28.618299999999998]]]}}]}