{"type": "FeatureCollection", "features": [{"type": "Feature", "properties": {"parcel_id": "P-001", "owner_name": "Owner 1", "area": 61605.0}, "geometry": {"type": "Polygon", "coordinates": [[[77.2, 28.61], [77.202, 28.61], [77.202, 28.6115], [77.2, 28.6115], [77.2, 28.61]]]}}, {"type": "Feature", "properties": {"parcel_id": "P-002", "owner_name": "Owner 2", "area": 61605.0}, "geometry": {"type": "Polygon", "coordinates": [[[77.2025, 28.61], [77.2045, 28.61], [77.2045, 28.6115], [77.2025, 28.6115], [77.2025, 28.61]]]}}, {"type": "Feature", "properties": {"parcel_id": "P-003", "owner_name": "Owner 3", "area": 61605.0}, "geometry": {"type": "Polygon", "coordinates": [[[77.205, 28.61], [77.207, 28.61], [77.207, 28.6115], [77.205, 28.6115], [77.205, 28.61]]]}}, {"type": "Feature", "properties": {"parcel_id": "P-004", "owner_name": "Owner 4", "area": 61605.0}, "geometry": {"type": "Polygon", "coordinates": [[[77.2075, 28.61], [77.20949999999999, 28.61], [77.20949999999999, 28.6115], [77.2075, 28.6115], [77.2075, 28.61]]]}}, {"type": "Feature", "properties": {"parcel_id": "P-005", "owner_name": "Owner 5", "area": 61605.0}, "geometry": {"type": "Polygon", "coordinates": [[[77.21000000000001, 28.61], [77.212, 28.61], [77.212, 28.6115], [77.21000000000001, 28.6115], [77.21000000000001, 28.61]]]}}, {"type": "Feature", "properties": {"parcel_id": "P-006", "owner_name": "Owner 6", "area": 61605.0}, "geometry": {"type": "Polygon", "coordinates": [[[77.2125, 28.61], [77.2145, 28.61], [77.2145, 28.6115], [77.2125, 28.6115], [77.2125, 28.61]]]}}, {"type": "Feature", "properties": {"parcel_id": "P-007", "owner_name": "Owner 7", "area": 61605.0}, "geometry": {"type": "Polygon", "coordinates": [[[77.2, 28.612], [77.202, 28.612], [77.202, 28.6135], [77.2, 28.6135], [77.2, 28.612]]]}}, {"type": "Feature", "properties": {"parcel_id": "P-008", "owner_name": "Owner 8", "area": 61605.0}, "geometry": {"type": "Polygon", "coordinates": [[[77.2025, 28.612], [77.2045, 28.612], [77.2045, 28.6135], [77.2025, 28.6135], [77.2025, 28.612]]]}}, {"type": "Feature", "properties": {"parcel_id": "P-009", "owner_name": "Owner 9", "area": 61605.0}, "geometry": {"type": "Polygon", "coordinates": [[[77.205, 28.612], [77.207, 28.612], [77.207, 28.6135], [77.205, 28.6135], [77.205, 28.612]]]}}, {"type": "Feature", "properties": {"parcel_id": "P-010", "owner_name": "Owner 10", "area": 61605.0}, "geometry": {"type": "Polygon", "coordinates": [[[77.2075, 28.612], [77.20949999999999, 28.612], [77.20949999999999, 28.6135], [77.2075, 28.6135], [77.2075, 28.612]]]}}, {"type": "Feature", "properties": {"parcel_id": "P-011", "owner_name": "Owner 11", "area": 61605.0}, "geometry": {"type": "Polygon", "coordinates": [[[77.21000000000001, 28.612], [77.212, 28.612], [77.212, 28.6135], [77.21000000000001, 28.6135], [77.21000000000001, 28.612]]]}}, {"type": "Feature", "properties": {"parcel_id": "P-012", "owner_name": "Owner 12", "area": 61605.0}, "geometry": {"type": "Polygon", "coordinates": [[[77.2125, 28.612], [77.2145, 28.612], [77.2145, 28.6135], [77.2125, 28.6135], [77.2125, 28.612]]]}}, {"type": "Feature", "properties": {"parcel_id": "P-013", "owner_name": "Owner 13", "area": 61605.0}, "geometry": {"type": "Polygon", "coordinates": [[[77.2, 28.614], [77.202, 28.614], [77.202, 28.6155], [77.2, 28.6155], [77.2, 28.614]]]}}, {"type": "Feature", "properties": {"parcel_id": "P-014", "owner_name": "Owner 14", "area": 61605.0}, "geometry": {"type": "Polygon", "coordinates": [[[77.2025, 28.614], [77.2045, 28.614], [77.2045, 28.6155], [77.2025, 28.6155], [77.2025, 28.614]]]}}, {"type": "Feature", "properties": {"parcel_id": "P-015", "owner_name": "Owner 15", "area": 61605.0}, "geometry": {"type": "Polygon", "coordinates": [[[77.205, 28.614], [77.207, 28.614], [77.207, 28.6155], [77.205, 28.6155], [77.205, 28.614]]]}}, {"type": "Feature", "properties": {"parcel_id": "P-016", "owner_name": "Owner 16", "area": 61605.0}, "geometry": {"type": "Polygon", "coordinates": [[[77.2075, 28.614], [77.20949999999999, 28.614], [77.20949999999999, 28.6155], [77.2075, 28.6155], [77.2075, 28.614]]]}}, {"type": "Feature", "properties": {"parcel_id": "P-017", "owner_name": "Owner 17", "area": 61605.0}, "geometry": {"type": "Polygon", "coordinates": [[[77.21000000000001, 28.614], [77.212, 28.614], [77.212, 28.6155], [77.21000000000001, 28.6155], [77.21000000000001, 28.614]]]}}, {"type": "Feature", "properties": {"parcel_id": "P-018", "owner_name": "Owner 18", "area": 61605.0}, "geometry": {"type": "Polygon", "coordinates": [[[77.2125, 28.614], [77.2145, 28.614], [77.2145, 28.6155], [77.2125, 28.6155], [77.2125, 28.614]]]}}, {"type": "Feature", "properties": {"parcel_id": "P-019", "owner_name": "Owner 19", "area": 61605.0}, "geometry": {"type": "Polygon", "coordinates": [[[77.2, 28.616], [77.202, 28.616], [77.202, 28.6175], [77.2, 28.6175], [77.2, 28.616]]]}}, {"type": "Feature", "properties": {"parcel_id": "P-020", "owner_name": "Owner 20", "area": 61605.0}, "geometry": {"type": "Polygon", "coordinates": [[[77.2025, 28.616], [77.2045, 28.616], [77.2045, 28.6175], [77.2025, 28.6175], [77.2025, 28.616]]]}}, {"type": "Feature", "properties": {"parcel_id": "P-021", "owner_name": "Owner 21", "area": 61605.0}, "geometry": {"type": "Polygon", "coordinates": [[[77.205, 28.616], [77.207, 28.616], [77.207, 28.6175], [77.205, 28.6175], [77.205, 28.616]]]}}, {"type": "Feature", "properties": {"parcel_id": "P-022", "owner_name": "Owner 22", "area": 61605.0}, "geometry": {"type": "Polygon", "coordinates": [[[77.2075, 28.616], [77.20949999999999, 28.616], [77.20949999999999, 28.6175], [77.2075, 28.6175], [77.2075, 28.616]]]}}, {"type": "Feature", "properties": {"parcel_id": "P-023", "owner_name": "Owner 23", "area": 61605.0}, "geometry": {"type": "Polygon", "coordinates": [[[77.21000000000001, 28.616], [77.212, 28.616], [77.212, 28.6175], [77.21000000000001, 28.6175], [77.21000000000001, 28.616]]]}}, {"type": "Feature", "properties": {"parcel_id": "P-024", "owner_name": "Owner 24", "area": 61605.0}, "geometry": {"type": "Polygon", "coordinates": [[[77.2125, 28.616], [77.2145, 28.616], [77.2145, 28.6175], [77.2125, 28.6175], [77.2125, 28.616]]]}}, {"type": "Feature", "properties": {"parcel_id": "P-025", "owner_name": "Owner 25", "area": 61605.0}, "geometry": {"type": "Polygon", "coordinates": [[[77.2, 28.618], [77.202, 28.618], [77.202, 28.6195], [77.2, 28.6195], [77.2, 28.618]]]}}, {"type": "Feature", "properties": {"parcel_id": "P-026", "owner_name": "Owner 26", "area": 61605.0}, "geometry": {"type": "Polygon", "coordinates": [[[77.2025, 28.618], [77.2045, 28.618], [77.2045, 28.6195], [77.2025, 28.6195], [77.2025, 28.618]]]}}, {"type": "Feature", "properties": {"parcel_id": "P-027", "owner_name": "Owner 27", "area": 61605.0}, "geometry": {"type": "Polygon", "coordinates": [[[77.205, 28.618], [77.207, 28.618], [77.207, 28.6195], [77.205, 28.6195], [77.205, 28.618]]]}}, {"type": "Feature", "properties": {"parcel_id": "P-028", "owner_name": "Owner 28", "area": 61605.0}, "geometry": {"type": "Polygon", "coordinates": [[[77.2075, 28.618], [77.20949999999999, 28.618], [77.20949999999999, 28.6195], [77.2075, 28.6195], [77.2075, 28.618]]]}}, {"type": "Feature", "properties": {"parcel_id": "P-029", "owner_name": "Owner 29", "area": 61605.0}, "geometry": {"type": "Polygon", "coordinates": [[[77.21000000000001, 28.618], [77.212, 28.618], [77.212, 28.6195], [77.21000000000001, 28.6195], [77.21000000000001, 28.618]]]}}, {"type": "Feature", "properties": {"parcel_id": "P-030", "owner_name": "Owner 30", "area": 61605.0}, "geometry": {"type": "Polygon", "coordinates": [[[77.2125, 28.618], [77.2145, 28.618], [77.2145, 28.6195], [77.2125, 28.6195], [77.2125, 28.618]]]}}]}