{"type": "FeatureCollection", "features": [{"type": "Feature", "properties": {"utility_id": "U-01", "type": "water"}, "geometry": {"type": "LineString", "coordinates": [[77.20020000000001, 28.6098], [77.20120000000001, 28.621]]}}, {"type": "Feature", "properties": {"utility_id": "U-02", "type": "electric"}, "geometry": {"type": "LineString", "coordinates": [[77.2047, 28.6098], [77.20570000000001, 28.621]]}}, {"type": "Feature", "properties": {"utility_id": "U-03", "type": "water"}, "geometry": {"type": "LineString", "coordinates": [[77.20920000000001, 28.6098], [77.21020000000001, 28.621]]}}, {"type": "Feature", "properties": {"utility_id": "U-04", "type": "electric"}, "geometry": {"type": "LineString", "coordinates": [[77.2137, 28.6098], [77.21470000000001, 28.621]]}}, {"type": "Feature", "properties": {"utility_id": "U-05", "type": "water"}, "geometry": {"type": "LineString", "coordinates": [[77.21820000000001, 28.6098], [77.21920000000001, 28.621]]}}, {"type": "Feature", "properties": {"utility_id": "U-06", "type": "electric"}, "geometry": {"type": "LineString", "coordinates": [[77.2227, 28.6098], [77.22370000000001, 28.621]]}}, {"type": "Feature", "properties": {"utility_id": "U-07", "type": "water"}, "geometry": {"type": "LineString", "coordinates": [[77.22720000000001, 28.6098], [77.22820000000002, 28.621]]}}]}